{
  "type": "FeatureCollection",
  "features": [
    {
      "type": "Feature",
      "properties": {
        "norad_id": 31608,
        "name": "FENGYUN 1C DEB",
        "group": "fengyun-1c-debris",
        "lat": 4.366404346004755,
        "lon": -72.24023860520128,
        "alt_km": 695.9385591703731,
        "timestamp": "2025-12-14T20:40:32.054976+00:00",
        "meta_object_name": "FENGYUN 1C DEB",
        "meta_object_id": "1999-025BZN",
        "meta_epoch": "2025-12-13T01:52:34.871232",
        "meta_mean_motion": 14.85857618,
        "meta_eccentricity": 0.01461529,
        "meta_inclination": 98.3792,
        "meta_ra_of_asc_node": 105.2371,
        "meta_arg_of_pericenter": 36.6452,
        "meta_mean_anomaly": 324.465,
        "meta_ephemeris_type": 0,
        "meta_classification_type": "U",
        "meta_norad_cat_id": 31608,
        "meta_element_set_no": 999,
        "meta_rev_at_epoch": 98638,
        "meta_bstar": 0.0009356671,
        "meta_mean_motion_dot": 9.832e-05,
        "meta_mean_motion_ddot": 0,
        "tle_line1": "1 31608U 99025BZN 25347.07818138  .00009832  00000+0  93567-3 0  9994",
        "tle_line2": "2 31608  98.3792 105.2371 0146152  36.6452 324.4650 14.85857618986383"
      },
      "geometry": {
        "type": "Point",
        "coordinates": [
          -72.24023860520128,
          4.366404346004755
        ]
      }
    },
    {
      "type": "Feature",
      "properties": {
        "norad_id": 31609,
        "name": "FENGYUN 1C DEB",
        "group": "fengyun-1c-debris",
        "lat": -11.44677760965407,
        "lon": -164.42546380030677,
        "alt_km": 880.6628647652242,
        "timestamp": "2025-12-14T20:40:32.054987+00:00",
        "meta_object_name": "FENGYUN 1C DEB",
        "meta_object_id": "1999-025BZP",
        "meta_epoch": "2025-12-14T01:14:17.548800",
        "meta_mean_motion": 14.15774906,
        "meta_eccentricity": 0.00947936,
        "meta_inclination": 99.2168,
        "meta_ra_of_asc_node": 16.6213,
        "meta_arg_of_pericenter": 316.7116,
        "meta_mean_anomaly": 70.1144,
        "meta_ephemeris_type": 0,
        "meta_classification_type": "U",
        "meta_norad_cat_id": 31609,
        "meta_element_set_no": 999,
        "meta_rev_at_epoch": 66103,
        "meta_bstar": 0.0026627997,
        "meta_mean_motion_dot": 5.418e-05,
        "meta_mean_motion_ddot": 0,
        "tle_line1": "1 31609U 99025BZP 25348.05159200  .00005418  00000+0  26628-2 0  9991",
        "tle_line2": "2 31609  99.2168  16.6213 0094793 316.7116  70.1144 14.15774906661039"
      },
      "geometry": {
        "type": "Point",
        "coordinates": [
          -164.42546380030677,
          -11.44677760965407
        ]
      }
    },
    {
      "type": "Feature",
      "properties": {
        "norad_id": 31612,
        "name": "FENGYUN 1C DEB",
        "group": "fengyun-1c-debris",
        "lat": 61.81413401779682,
        "lon": -114.46256083648308,
        "alt_km": 328.9704287652303,
        "timestamp": "2025-12-14T20:40:32.054997+00:00",
        "meta_object_name": "FENGYUN 1C DEB",
        "meta_object_id": "1999-025BZS",
        "meta_epoch": "2025-12-12T11:50:49.507584",
        "meta_mean_motion": 15.70263985,
        "meta_eccentricity": 0.00329859,
        "meta_inclination": 100.3346,
        "meta_ra_of_asc_node": 261.9534,
        "meta_arg_of_pericenter": 101.5536,
        "meta_mean_anomaly": 258.9422,
        "meta_ephemeris_type": 0,
        "meta_classification_type": "U",
        "meta_norad_cat_id": 31612,
        "meta_element_set_no": 999,
        "meta_rev_at_epoch": 1,
        "meta_bstar": 0.0024006773,
        "meta_mean_motion_dot": 0.00310766,
        "meta_mean_motion_ddot": 0,
        "tle_line1": "1 31612U 99025BZS 25346.49362856  .00310766  00000+0  24007-2 0  9998",
        "tle_line2": "2 31612 100.3346 261.9534 0032985 101.5536 258.9422 15.70263985    19"
      },
      "geometry": {
        "type": "Point",
        "coordinates": [
          -114.46256083648308,
          61.81413401779682
        ]
      }
    },
    {
      "type": "Feature",
      "properties": {
        "norad_id": 31613,
        "name": "FENGYUN 1C DEB",
        "group": "fengyun-1c-debris",
        "lat": 32.16753941617577,
        "lon": 0.9751108219315612,
        "alt_km": 843.3798556247948,
        "timestamp": "2025-12-14T20:40:32.055009+00:00",
        "meta_object_name": "FENGYUN 1C DEB",
        "meta_object_id": "1999-025BZT",
        "meta_epoch": "2025-12-12T23:57:28.233216",
        "meta_mean_motion": 13.63442192,
        "meta_eccentricity": 0.0342723,
        "meta_inclination": 98.4241,
        "meta_ra_of_asc_node": 174.0101,
        "meta_arg_of_pericenter": 105.3589,
        "meta_mean_anomaly": 258.5695,
        "meta_ephemeris_type": 0,
        "meta_classification_type": "U",
        "meta_norad_cat_id": 31613,
        "meta_element_set_no": 999,
        "meta_rev_at_epoch": 91765,
        "meta_bstar": 0.0017926626,
        "meta_mean_motion_dot": 2.07e-05,
        "meta_mean_motion_ddot": 0,
        "tle_line1": "1 31613U 99025BZT 25346.99824344  .00002070  00000+0  17927-2 0  9998",
        "tle_line2": "2 31613  98.4241 174.0101 0342723 105.3589 258.5695 13.63442192917653"
      },
      "geometry": {
        "type": "Point",
        "coordinates": [
          0.9751108219315612,
          32.16753941617577
        ]
      }
    },
    {
      "type": "Feature",
      "properties": {
        "norad_id": 31614,
        "name": "FENGYUN 1C DEB",
        "group": "fengyun-1c-debris",
        "lat": 46.5439893870991,
        "lon": 84.56469647398409,
        "alt_km": 579.0905246721568,
        "timestamp": "2025-12-14T20:40:32.055019+00:00",
        "meta_object_name": "FENGYUN 1C DEB",
        "meta_object_id": "1999-025BZU",
        "meta_epoch": "2025-12-14T07:48:12.967776",
        "meta_mean_motion": 14.97789868,
        "meta_eccentricity": 0.0020873,
        "meta_inclination": 98.9759,
        "meta_ra_of_asc_node": 254.346,
        "meta_arg_of_pericenter": 1.8897,
        "meta_mean_anomaly": 120.263,
        "meta_ephemeris_type": 0,
        "meta_classification_type": "U",
        "meta_norad_cat_id": 31614,
        "meta_element_set_no": 999,
        "meta_rev_at_epoch": 96453,
        "meta_bstar": 0.0085783182,
        "meta_mean_motion_dot": 0.00102541,
        "meta_mean_motion_ddot": 0,
        "tle_line1": "1 31614U 99025BZU 25348.32515009  .00102541  00000+0  85783-2 0  9992",
        "tle_line2": "2 31614  98.9759 254.3460 0020873   1.8897 120.2630 14.97789868964539"
      },
      "geometry": {
        "type": "Point",
        "coordinates": [
          84.56469647398409,
          46.5439893870991
        ]
      }
    },
    {
      "type": "Feature",
      "properties": {
        "norad_id": 31615,
        "name": "FENGYUN 1C DEB",
        "group": "fengyun-1c-debris",
        "lat": -23.75993341636201,
        "lon": -143.64711299287526,
        "alt_km": 811.1073793098612,
        "timestamp": "2025-12-14T20:40:32.055029+00:00",
        "meta_object_name": "FENGYUN 1C DEB",
        "meta_object_id": "1999-025BZV",
        "meta_epoch": "2025-12-13T23:38:15.749664",
        "meta_mean_motion": 14.35377439,
        "meta_eccentricity": 0.01659833,
        "meta_inclination": 99.1383,
        "meta_ra_of_asc_node": 39.488,
        "meta_arg_of_pericenter": 313.0413,
        "meta_mean_anomaly": 45.6969,
        "meta_ephemeris_type": 0,
        "meta_classification_type": "U",
        "meta_norad_cat_id": 31615,
        "meta_element_set_no": 999,
        "meta_rev_at_epoch": 65296,
        "meta_bstar": 0.0032773634,
        "meta_mean_motion_dot": 0.00010957,
        "meta_mean_motion_ddot": 0,
        "tle_line1": "1 31615U 99025BZV 25347.98490451  .00010957  00000+0  32774-2 0  9998",
        "tle_line2": "2 31615  99.1383  39.4880 0165983 313.0413  45.6969 14.35377439652963"
      },
      "geometry": {
        "type": "Point",
        "coordinates": [
          -143.64711299287526,
          -23.75993341636201
        ]
      }
    },
    {
      "type": "Feature",
      "properties": {
        "norad_id": 31618,
        "name": "FENGYUN 1C DEB",
        "group": "fengyun-1c-debris",
        "lat": 19.032155055581924,
        "lon": -44.771643210735306,
        "alt_km": 927.7242993211057,
        "timestamp": "2025-12-14T20:40:32.055039+00:00",
        "meta_object_name": "FENGYUN 1C DEB",
        "meta_object_id": "1999-025BZY",
        "meta_epoch": "2025-12-13T15:11:12.379488",
        "meta_mean_motion": 14.21021707,
        "meta_eccentricity": 0.0157061,
        "meta_inclination": 99.4423,
        "meta_ra_of_asc_node": 130.6247,
        "meta_arg_of_pericenter": 323.535,
        "meta_mean_anomaly": 35.5209,
        "meta_ephemeris_type": 0,
        "meta_classification_type": "U",
        "meta_norad_cat_id": 31618,
        "meta_element_set_no": 999,
        "meta_rev_at_epoch": 70277,
        "meta_bstar": 0.0004104939,
        "meta_mean_motion_dot": 9.56e-06,
        "meta_mean_motion_ddot": 0,
        "tle_line1": "1 31618U 99025BZY 25347.63278217  .00000956  00000+0  41049-3 0  9991",
        "tle_line2": "2 31618  99.4423 130.6247 0157061 323.5350  35.5209 14.21021707702778"
      },
      "geometry": {
        "type": "Point",
        "coordinates": [
          -44.771643210735306,
          19.032155055581924
        ]
      }
    }
  ]
}